NORAD_CAT_ID,OBJECT_NAME,OBJECT_TYPE,EPOCH,MEAN_MOTION,ECCENTRICITY,INCLINATION,RA_OF_ASC_NODE,ARG_OF_PERICENTER,MEAN_ANOMALY,BSTAR,MEAN_MOTION_DOT,MEAN_MOTION_DDOT,TLE_LINE0,TLE_LINE1,TLE_LINE2,SEMIMAJOR_AXIS,PERIOD,APOGEE,PERIGEE,DECAYED
50845.0,STARLINK-3230,PAYLOAD,2022-09-20 23:51:11,15.08825997,0.0002102,53.2184,101.0585,54.7056,305.4132,8.981600000000001e-05,1.141e-05,0.0,0 STARLINK-3230,1 50845U 22001AU  22263.99388127  .00001141  00000-0  89816-4 0  9992,2 50845  53.2184 101.0585 0002102  54.7056 305.4132 15.08825997 40421,6917.9230000000025,95.438,541.242,538.3340000000002,0.0
50845.0,STARLINK-3230,PAYLOAD,2022-09-21 15:45:02,15.08837616,0.0001914,53.2184,98.0845,57.927,302.1908,6.1615e-05,6.93e-06,0.0,0 STARLINK-3230,1 50845U 22001AU  22264.65627792  .00000693  00000-0  61615-4 0  9998,2 50845  53.2184  98.0845 0001914  57.9270 302.1908 15.08837616 39297,6917.888000000001,95.438,541.077,538.429,0.0
50845.0,STARLINK-3230,PAYLOAD,2022-09-22 20:21:58,15.08841409,0.0002265,53.2189,92.7336,51.2729,308.8465,6.1185e-05,6.86e-06,0.0,0 STARLINK-3230,1 50845U 22001AU  22265.84859489  .00000686  00000-0  61185-4 0  9994,2 50845  53.2189  92.7336 0002265  51.2729 308.8465 15.08841409 39470,6917.876,95.437,541.308,538.174,0.0
50845.0,STARLINK-3230,PAYLOAD,2022-09-22 23:32:44,15.08865146,0.0001946,53.2188,92.1377,60.2245,299.8941,-0.0003918,-6.523e-05,0.0,0 STARLINK-3230,1 50845U 22001AU  22265.98106642 -.00006523  00000-0 -39180-3 0  9992,2 50845  53.2188  92.1377 0001946  60.2245 299.8941 15.08865146 40728,6917.804,95.436,541.015,538.322,0.0
50845.0,STARLINK-3230,PAYLOAD,2022-09-23 05:54:17,15.08836887,0.0001945,53.2189,90.9486,54.4243,305.693,9.6798e-05,1.253e-05,0.0,0 STARLINK-3230,1 50845U 22001AU  22266.24603665  .00001253  00000-0  96798-4 0  9991,2 50845  53.2189  90.9486 0001945  54.4243 305.6930 15.08836887 40766,6917.89,95.438,541.1,538.409,0.0
50845.0,STARLINK-3230,PAYLOAD,2022-09-23 18:37:22,15.08848282,0.0001975,53.2189,88.5702,52.6517,307.4654,3.0527e-05,1.98e-06,0.0,0 STARLINK-3230,1 50845U 22001AU  22266.77595056  .00000198  00000-0  30527-4 0  9998,2 50845  53.2189  88.5702 0001975  52.6517 307.4654 15.08848282 40841,6917.855,95.437,541.086,538.354,0.0
50845.0,STARLINK-3230,PAYLOAD,2022-09-23 23:23:31,15.088502599999998,0.0001991,53.2188,87.678,52.9853,307.1321,4.6326e-05,4.49e-06,0.0,0 STARLINK-3230,1 50845U 22001AU  22266.97466789  .00000449  00000-0  46326-4 0  9993,2 50845  53.2188  87.6780 0001991  52.9853 307.1321 15.08850260 39643,6917.849,95.437,541.091,538.337,0.0
50845.0,STARLINK-3230,PAYLOAD,2022-09-24 18:28:08,15.08846188,0.0002,53.2188,84.1095,54.1025,306.0153,0.00015344,2.155e-05,0.0,0 STARLINK-3230,1 50845U 22001AU  22267.76954399  .00002155  00000-0  15344-3 0  9991,2 50845  53.2188  84.1095 0002000  54.1025 306.0153 15.08846188 39769,6917.861,95.437,541.11,538.3430000000002,0.0
50845.0,STARLINK-3230,PAYLOAD,2022-09-24 23:14:18,15.08839816,0.0001972,53.2192,83.2167,57.112,303.0062,0.00010123,1.323e-05,0.0,0 STARLINK-3230,1 50845U 22001AU  22267.96826928  .00001323  00000-0  10123-3 0  9995,2 50845  53.2192  83.2167 0001972  57.1120 303.0062 15.08839816 41028,6917.880999999999,95.438,541.11,538.382,0.0
50845.0,STARLINK-3230,PAYLOAD,2022-09-25 18:18:56,15.0883846,0.0001924,53.2194,79.6485,55.4503,304.6671,4.0907e-06,-2.23e-06,0.0,0 STARLINK-3230,1 50845U 22001AU  22268.76315153 -.00000223  00000-0  40907-5 0  9991,2 50845  53.2194  79.6485 0001924  55.4503 304.6671 15.08838460 39917,6917.885,95.438,541.081,538.419,0.0
50845.0,STARLINK-3230,PAYLOAD,2022-09-25 23:05:05,15.08839736,0.0001857,53.2196,78.7562,54.0149,306.1015,-3.084e-05,-7.79e-06,0.0,0 STARLINK-3230,1 50845U 22001AU  22268.96187153 -.00000779  00000-0 -30840-4 0  9991,2 50845  53.2196  78.7562 0001857  54.0149 306.1015 15.08839736 41178,6917.880999999999,95.438,541.031,538.462,0.0
50845.0,STARLINK-3230,PAYLOAD,2022-09-26 22:55:53,15.08828949,0.000193,53.2195,74.2954,52.7215,307.3953,-2.544e-05,-6.93e-06,0.0,0 STARLINK-3230,1 50845U 22001AU  22269.95548112 -.00000693  00000-0 -25440-4 0  9992,2 50845  53.2195  74.2954 0001930  52.7215 307.3953 15.08828949 41329,6917.9140000000025,95.438,541.114,538.444,0.0
50845.0,STARLINK-3230,PAYLOAD,2022-09-27 18:00:31,15.08826502,0.0001948,53.2196,70.727,52.7731,307.3438,2.1972e-05,6.1e-07,0.0,0 STARLINK-3230,1 50845U 22001AU  22270.75036729  .00000061  00000-0  21972-4 0  9991,2 50845  53.2196  70.7270 0001948  52.7731 307.3438 15.08826502 40212,6917.922,95.438,541.134,538.439,0.0
50845.0,STARLINK-3230,PAYLOAD,2022-09-28 09:54:22,15.08842481,0.0002016,53.2197,67.7538,55.2084,304.9098,6.689100000000001e-05,7.77e-06,0.0,0 STARLINK-3230,1 50845U 22001AU  22271.41275533  .00000777  00000-0  66891-4 0  9996,2 50845  53.2197  67.7538 0002016  55.2084 304.9098 15.08842481 41548,6917.873000000001,95.437,541.132,538.3430000000002,0.0
50845.0,STARLINK-3230,PAYLOAD,2022-09-29 11:20:33,15.08834171,0.0002064,53.2196,62.9962,55.6927,304.426,-3.3109e-06,-3.41e-06,0.0,0 STARLINK-3230,1 50845U 22001AU  22272.47260643 -.00000341  00000-0 -33109-5 0  9995,2 50845  53.2196  62.9962 0002064  55.6927 304.4260 15.08834171 40472,6917.898,95.438,541.191,538.335,0.0
50845.0,STARLINK-3230,PAYLOAD,2022-09-29 19:17:28,15.08836249,0.0002069,53.2199,61.5093,55.572,304.5468,3.7385e-05,3.07e-06,0.0,0 STARLINK-3230,1 50845U 22001AU  22272.80380670  .00000307  00000-0  37385-4 0  9994,2 50845  53.2199  61.5093 0002069  55.5720 304.5468 15.08836249 40525,6917.892,95.438,541.188,538.326,0.0
50845.0,STARLINK-3230,PAYLOAD,2022-09-30 03:14:23,15.08841257,0.0001601,53.2203,60.0233,42.8601,317.2516,0.0001538,2.161e-05,0.0,0 STARLINK-3230,1 50845U 22001AU  22273.13499960  .00002161  00000-0  15380-3 0  9994,2 50845  53.2203  60.0233 0001601  42.8601 317.2516 15.08841257 41801,6917.877,95.437,540.849,538.634,0.0
50845.0,STARLINK-3230,PAYLOAD,2022-09-30 09:35:56,15.08843712,0.000159,53.2213,58.8343,38.9676,321.1431,0.00016817,2.39e-05,0.0,0 STARLINK-3230,1 50845U 22001AU  22273.39995797  .00002390  00000-0  16817-3 0  9991,2 50845  53.2213  58.8343 0001590  38.9676 321.1431 15.08843712 40610,6917.869000000002,95.437,540.8340000000002,538.634,0.0
50845.0,STARLINK-3230,PAYLOAD,2022-09-30 19:08:14,15.08852005,0.0001472,53.2192,57.049,40.7386,319.3717,0.00022647,3.319e-05,0.0,0 STARLINK-3230,1 50845U 22001AU  22273.79738993  .00003319  00000-0  22647-3 0  9998,2 50845  53.2192  57.0490 0001472  40.7386 319.3717 15.08852005 40675,6917.844,95.437,540.727,538.69,0.0
50845.0,STARLINK-3230,PAYLOAD,2022-10-01 03:05:10,15.08855115,0.0001415,53.2188,55.5618,39.8175,320.2921,0.00016552,2.348e-05,0.0,0 STARLINK-3230,1 50845U 22001AU  22274.12858863  .00002348  00000-0  16552-3 0  9994,2 50845  53.2188  55.5618 0001415  39.8175 320.2921 15.08855115 41952,6917.834,95.437,540.678,538.72,0.0
50845.0,STARLINK-3230,PAYLOAD,2022-10-01 12:37:29,15.08846096,0.0001682,53.2199,53.7787,44.8475,315.2653,8.6665e-05,1.092e-05,0.0,0 STARLINK-3230,1 50845U 22001AU  22274.52603501  .00001092  00000-0  86665-4 0  9993,2 50845  53.2199  53.7787 0001682  44.8475 315.2653 15.08846096 42018,6917.861999999999,95.437,540.89,538.563,0.0
50845.0,STARLINK-3230,PAYLOAD,2022-10-01 18:59:01,15.08850491,0.0001811999999999,53.2198,52.5893,46.415,313.6993,0.00012194,1.654e-05,0.0,0 STARLINK-3230,1 50845U 22001AU  22274.79099023  .00001654  00000-0  12194-3 0  9999,2 50845  53.2198  52.5893 0001812  46.4150 313.6993 15.08850491 40825,6917.848000000001,95.437,540.967,538.46,0.0
50845.0,STARLINK-3230,PAYLOAD,2022-10-02 12:28:16,15.08843365,0.0001665,53.219,49.3171,55.5236,304.5913,-5.8301e-05,-1.216e-05,0.0,0 STARLINK-3230,1 50845U 22001AU  22275.51963493 -.00001216  00000-0 -58301-4 0  9998,2 50845  53.2190  49.3171 0001665  55.5236 304.5913 15.08843365 40937,6917.87,95.437,540.887,538.5830000000002,0.0
50845.0,STARLINK-3230,PAYLOAD,2022-10-02 18:49:48,15.08845507,0.0001784,53.2199,48.1291,45.7795,314.3343,-6.9589e-05,-1.396e-05,0.0,0 STARLINK-3230,1 50845U 22001AU  22275.78459336 -.00001396  00000-0 -69589-4 0  9992,2 50845  53.2199  48.1291 0001784  45.7795 314.3343 15.08845507 40979,6917.864000000001,95.437,540.9630000000002,538.494,0.0
50845.0,STARLINK-3230,PAYLOAD,2022-10-03 09:08:16,15.08850009,0.0001838,53.2204,45.4529,45.2697,314.8444,9.7682e-05,1.267e-05,0.0,0 STARLINK-3230,1 50845U 22001AU  22276.38074371  .00001267  00000-0  97682-4 0  9991,2 50845  53.2204  45.4529 0001838  45.2697 314.8444 15.08850009 42293,6917.85,95.437,540.986,538.443,0.0
50845.0,STARLINK-3230,PAYLOAD,2022-10-03 12:19:02,15.08848457,0.0001833,53.2203,44.8581,45.8974,314.2169,8.7941e-05,1.112e-05,0.0,0 STARLINK-3230,1 50845U 22001AU  22276.51322505  .00001112  00000-0  87941-4 0  9997,2 50845  53.2203  44.8581 0001833  45.8974 314.2169 15.08848457 41080,6917.855,95.437,540.988,538.451,0.0
50845.0,STARLINK-3230,PAYLOAD,2022-10-04 01:02:08,15.08844305,0.0001869,53.2204,42.4796,44.6443,315.4699,1.2928e-05,-8.2e-07,0.0,0 STARLINK-3230,1 50845U 22001AU  22277.04314891 -.00000082  00000-0  12928-4 0  9994,2 50845  53.2204  42.4796 0001869  44.6443 315.4699 15.08844305 42394,6917.8669999999975,95.437,541.025,538.439,0.0
50845.0,STARLINK-3230,PAYLOAD,2022-10-04 13:45:13,15.08840879,0.0001766999999999,53.2196,40.0999,46.3086,313.8052,0.00012991,1.7800000000000002e-05,0.0,0 STARLINK-3230,1 50845U 22001AU  22277.57306755  .00001780  00000-0  12991-3 0  9996,2 50845  53.2196  40.0999 0001767  46.3086 313.8052 15.08840879 41242,6917.878000000002,95.437,540.965,538.52,0.0
50845.0,STARLINK-3230,PAYLOAD,2022-10-04 15:20:36,15.08841031,0.0001838,53.2195,39.803,42.7222,317.3912,0.00013493,1.86e-05,0.0,0 STARLINK-3230,1 50845U 22001AU  22277.63930733  .00001860  00000-0  13493-3 0  9999,2 50845  53.2195  39.8030 0001838  42.7222 317.3912 15.08841031 41250,6917.877,95.437,541.014,538.471,0.0
